GALAXY 16           [PM]
1 29236C 06023A   20303.54980324 -.00000037  00000-0  00000-0 0  3036
2 29236   0.0216 270.8919 0002869 303.5715 282.8272  1.00272239    16
GALAXY 16               
1 29236C 06023A   20307.00000000 -.00000037  00000-0  00000-0 0  3079
2 29236   0.0126 280.5162 0002863 303.4027  78.8495  1.00272105    15
GALAXY 17               
1 31307C 07016B   20303.00000000 -.00000086  00000-0  00000-0 0  3030
2 31307   0.0170 350.1075 0003544 220.5523  96.1500  1.00272622    14
GALAXY 17           [PM]
1 31307C 07016B   20303.06383102 -.00000083  00000-0  00000-0 0  3030
2 31307   0.0029 302.0983 0003631 267.6843 120.0658  1.00271936    13
GALAXY 17               
1 31307C 07016B   20307.00000000 -.00000256  00000-0  00000-0 0  3077
2 31307   0.0197  37.8911 0003587 181.4815  91.3917  1.00272711    15
INTELSAT 11             
1 32253C 07044B   20303.00000000 -.00000179  00000-0  00000-0 0  3035
2 32253   0.0046 252.4952 0002134 344.5582 117.7836  1.00272382    16
INTELSAT 11         [PM]
1 32253C 07044B   20306.29218750 -.00000178  00000-0  00000-0 0  3064
2 32253   0.0227 278.6999 0002344 331.8718 212.7020  1.00272413    17
INTELSAT 11             
1 32253C 07044B   20307.00000000 -.00000178  00000-0  00000-0 0  3072
2 32253   0.0204 280.8797 0002386 330.7985 107.1061  1.00272113    12
HORIZONS 2              
1 32388C 07063B   20303.00000000 -.00000093  00000-0  00000-0 0  3030
2 32388   0.0147 274.4984 0002411 305.8098 262.3537  1.00272663    13
HORIZONS 2          [PM]
1 32388C 07063B   20304.67896991 -.00000092  00000-0  00000-0 0  3046
2 32388   0.0112 280.7060 0002447 304.9806 143.0644  1.00272420    11
HORIZONS 2              
1 32388C 07063B   20307.00000000 -.00000107  00000-0  00000-0 0  3074
2 32388   0.0067 294.9199 0002461 297.5719 254.1214  1.00272195    12
GALAXY 18               
1 32951C 08024A   20303.00000000  .00000115  00000-0  00000-0 0  3038
2 32951   0.0138 262.0203 0003243 313.7372  59.0570  1.00271589    17
GALAXY 18               
1 32951C 08024A   20307.00000000  .00000270  00000-0  00000-0 0  3078
2 32951   0.0032 274.1781 0003302 312.3823  52.2094  1.00272998    18
GALAXY 18           [PM]
1 32951C 08024A   20307.56109954  .00000138  00000-0  00000-0 0  3070
2 32951   0.0006 261.1928 0003181 311.8738 268.2507  1.00272602    12
INTELSAT 25             
1 33153C 08034A   20303.00000000 -.00000134  00000-0  00000-0 0  3036
2 33153   0.0204 244.9035 0003137 334.1309 147.2804  1.00273030    10
INTELSAT 25         [PM]
1 33153C 08034A   20304.60125000 -.00000133  00000-0  00000-0 0  3041
2 33153   0.0165 245.7556 0003090 338.3770   0.2188  1.00272519    13
INTELSAT 25             
1 33153C 08034A   20307.00000000 -.00000137  00000-0  00000-0 0  3077
2 33153   0.0103 245.6976 0003182 345.0405 139.5333  1.00272363    17
GALAXY 19               
1 33376C 08045A   20303.00000000 -.00000039  00000-0  00000-0 0  3039
2 33376   0.0000 220.1642 0003315   1.8524  78.7976  1.00271615    11
GALAXY 19           [PM]
1 33376C 08045A   20306.92916667 -.00000050  00000-0  00000-0 0  3064
2 33376   0.0088 276.8494 0003394 314.4603  47.8881  1.00272839    19
GALAXY 19               
1 33376C 08045A   20307.00000000 -.00000050  00000-0  00000-0 0  3070
2 33376   0.0087 277.4848 0003403 313.9288  73.3540  1.00272940    11
INTELSAT 14             
1 36097C 09064A   20303.00000000 -.00000183  00000-0  00000-0 0  3034
2 36097   0.0167 262.1828 0002717 316.3277 134.2994  1.00273293    16
INTELSAT 14             
1 36097C 09064A   20307.00000000 -.00000185  00000-0  00000-0 0  3074
2 36097   0.0062 273.7478 0002770 316.7053 126.3146  1.00272274    13
INTELSAT 14         [PM]
1 36097C 09064A   20309.85326389 -.00000308  00000-0  00000-0 0  3099
2 36097   0.0376  93.4572 0002768 139.3283  73.9680  1.00273263    13
INTELSAT 15             
1 36106C 09067A   20303.00000000 -.00000093  00000-0  00000-0 0  3038
2 36106   0.0009 279.3050 0002459 295.4218 268.2443  1.00272191    17
INTELSAT 15             
1 36106C 09067A   20307.00000000 -.00000267  00000-0  00000-0 0  3079
2 36106   0.0334  55.7239 0002487 170.6228 260.5728  1.00271965    18
INTELSAT 15         [PM]
1 36106C 09067A   20307.94096065 -.00000096  00000-0  00000-0 0  3078
2 36106   0.0220 292.5661 0002473 297.7739 236.2518  1.00272545    17
INTELSAT 16             
1 36397C 10006A   20303.00000000 -.00000156  00000-0  00000-0 0  3035
2 36397   0.0000 258.3726 0002294 313.8129 109.4226  1.00272745    10
INTELSAT 16             
1 36397C 10006A   20307.00000000 -.00000251  00000-0  00000-0 0  3079
2 36397   0.0002 315.9793 0002298 269.9213  99.6610  1.00271905    19
INTELSAT 16         [PM]
1 36397C 10006A   20307.39203704 -.00000155  00000-0  00000-0 0  3070
2 36397   0.0226 286.1467 0002341 304.7210 236.2132  1.00273790    10
INTELSAT 17             
1 37238C 10065B   20303.00000000  .00000091  00000-0  00000-0 0  3032
2 37238   0.0135 214.0090 0002976   3.9777 245.8380  1.00270203    13
INTELSAT 17             
1 37238C 10065B   20307.00000000  .00000088  00000-0  00000-0 0  3076
2 37238   0.0143 191.7750 0003014  37.7781 238.2140  1.00272131    12
INTELSAT 17         [PM]
1 37238C 10065B   20309.00951389  .00000085  00000-0  00000-0 0  3092
2 37238   0.0329 131.6051 0003004  99.8551 241.7149  1.00270916    15
INTELSAT NEW DAWN       
1 37392C 11016A   20303.00000000  .00000246  00000-0  00000-0 0  3032
2 37392   0.0190 176.4805 0001312  55.6243 198.5217  1.00272649    14
INTELSAT NEW DAWN       
1 37392C 11016A   20307.00000000  .00000241  00000-0  00000-0 0  3075
2 37392   0.0416 109.8869 0001200 116.0510 208.6356  1.00266555    16
INTELSAT NEW DAWN   [PM]
1 37392C 11016A   20307.08378472  .00000246  00000-0  00000-0 0  3079
2 37392   0.0190 212.8560 0001488   5.0253 246.9382  1.00271322    19
INTELSAT 18             
1 37834C 11056A   20303.00000000  .00000148  00000-0  00000-0 0  3038
2 37834   0.0076 262.5443 0001995 307.4164   7.8450  1.00271109    11
INTELSAT 18         [PM]
1 37834C 11056A   20303.58524306  .00000046  00000-0  00000-0 0  3038
2 37834   0.0065 264.1426 0002070 309.5886 215.3380  1.00271824    19
INTELSAT 18             
1 37834C 11056A   20307.00000000  .00000045  00000-0  00000-0 0  3072
2 37834   0.0001 286.2045 0001995 297.6368 357.9146  1.00272815    12
INTELSAT 22         [PM]
1 38098C 12011A   20302.51613426 -.00000037  00000-0  00000-0 0  3027
2 38098   0.0032 247.9777 0003037 323.9985  83.2642  1.00271879    11
INTELSAT 22             
1 38098C 12011A   20303.00000000  .00000222  00000-0  00000-0 0  3036
2 38098   0.0022 248.6258 0003082 326.1095 255.1747  1.00272296    19
INTELSAT 22             
1 38098C 12011A   20307.00000000  .00000046  00000-0  00000-0 0  3078
2 38098   0.0387  80.3378 0003081 142.9856 250.5411  1.00272892    14
INTELSAT 19             
1 38356C 12030A   20303.00000000  .00000011  00000-0  00000-0 0  3030
2 38356   0.0417  62.2078 0003140 150.6619 350.9391  1.00272433    13
INTELSAT 19         [PM]
1 38356C 12030A   20306.19892361  .00000034  00000-0  00000-0 0  3060
2 38356   0.0221 274.7135 0003191 305.8432  58.0375  1.00271045    19
INTELSAT 19             
1 38356C 12030A   20307.00000000  .00000035  00000-0  00000-0 0  3074
2 38356   0.0204 281.6988 0003184 304.0253 342.0453  1.00271201    14
INTELSAT 19         [PM]
1 38356C 12030A   20309.28148148  .00000034  00000-0  00000-0 0  3093
2 38356   0.0118 286.1824 0003250 302.3549  82.8064  1.00271885    15
INTELSAT 20             
1 38740C 12043A   20303.00000000  .00000059  00000-0  00000-0 0  3033
2 38740   0.0089 205.2634 0002854 341.8380 279.2163  1.00271455    15
INTELSAT 20         [PM]
1 38740C 12043A   20303.74373843  .00000065  00000-0  00000-0 0  3039
2 38740   0.0089 205.4887 0002594 340.7976 188.5067  1.00272155    10
INTELSAT 20             
1 38740C 12043A   20307.00000000  .00000075  00000-0  00000-0 0  3079
2 38740   0.0041 224.7342 0002666 326.8238 278.7049  1.00271210    17
INTELSAT 21             
1 38749C 12045A   20303.00000000 -.00000195  00000-0  00000-0 0  3036
2 38749   0.0141 262.7968 0002428 306.5674 130.4637  1.00272569    13
INTELSAT 21             
1 38749C 12045A   20307.00000000 -.00000195  00000-0  00000-0 0  3074
2 38749   0.0040 276.4583 0002413 305.8300 121.4889  1.00271559    15
INTELSAT 21         [PM]
1 38749C 12045A   20309.78125000 -.00000226  00000-0  00000-0 0  3096
2 38749   0.0348  92.4383 0002298 131.5983  43.7228  1.00273267    13
INTELSAT 23             
1 38867C 12057A   20303.00000000 -.00000195  00000-0  00000-0 0  3030
2 38867   0.0161 252.7254 0001924 313.9230 138.1649  1.00270559    18
INTELSAT 23         [PM]
1 38867C 12057A   20305.88675926 -.00000195  00000-0  00000-0 0  3055
2 38867   0.0087 257.3502 0001898 308.7243 100.8020  1.00275214    10
INTELSAT 23             
1 38867C 12057A   20307.00000000 -.00000195  00000-0  00000-0 0  3078
2 38867   0.0053 259.0392 0001883 310.5365 139.1776  1.00274937    13
INTELSAT 30         [PM]
1 40271C 14062A   20302.46663194 -.00000061  00000-0  00000-0 0  3029
2 40271   0.0081 240.4204 0002059 218.1934  11.5995  1.00273021    12
INTELSAT 30             
1 40271C 14062A   20303.00000000 -.00000057  00000-0  00000-0 0  3037
2 40271   0.0077 261.5437 0001939 206.0418 195.1690  1.00271155    15
INTELSAT 30             
1 40271C 14062A   20307.00000000 -.00000058  00000-0  00000-0 0  3076
2 40271   0.0106 283.3266 0001812 183.2255 200.1594  1.00271384    19
INTELSAT 34             
1 40874C 15039A   20303.00000000 -.00000194  00000-0  00000-0 0  3033
2 40874   0.0075 263.5955 0000274 202.8606 235.8563  1.00269637    16
INTELSAT 34         [PM]
1 40874C 15039A   20303.11230324 -.00000193  00000-0  00000-0 0  3038
2 40874   0.0078 255.4939 0000290 245.8870 241.4671  1.00273605    12
